{
    "links": {
        "self": "http://www.neowsapp.com/rest/v1/neo/3769810?api_key=iIulBulltgU6a56xZRHN4H3l9WmuAYTsLGpBGhQ2"
    },
    "id": "3769810",
    "neo_reference_id": "3769810",
    "name": "(2017 DS34)",
    "designation": "2017 DS34",
    "nasa_jpl_url": "http://ssd.jpl.nasa.gov/sbdb.cgi?sstr=3769810",
    "absolute_magnitude_h": 25.7,
    "estimated_diameter": {
        "kilometers": {
            "estimated_diameter_min": 0.0192555078,
            "estimated_diameter_max": 0.0430566244
        },
        "meters": {
            "estimated_diameter_min": 19.2555078188,
            "estimated_diameter_max": 43.0566244241
        },
        "miles": {
            "estimated_diameter_min": 0.0119648141,
            "estimated_diameter_max": 0.0267541378
        },
        "feet": {
            "estimated_diameter_min": 63.1742402722,
            "estimated_diameter_max": 141.2618956756
        }
    },
    "is_potentially_hazardous_asteroid": false,
    "close_approach_data": [
        {
            "close_approach_date": "2017-02-27",
            "close_approach_date_full": "2017-Feb-27 19:49",
            "epoch_date_close_approach": 1488224940000,
            "relative_velocity": {
                "kilometers_per_second": "21.9816966226",
                "kilometers_per_hour": "79134.1078414226",
                "miles_per_hour": "49170.8571751329"
            },
            "miss_distance": {
                "astronomical": "0.018298015",
                "lunar": "7.117927835",
                "kilometers": "2737344.06922805",
                "miles": "1700906.73252509"
            },
            "orbiting_body": "Earth"
        }
    ],
    "orbital_data": {
        "orbit_id": "6",
        "orbit_determination_date": "2018-02-10 07:08:44",
        "first_observation_date": "2017-02-22",
        "last_observation_date": "2017-02-28",
        "data_arc_in_days": 6,
        "observations_used": 44,
        "orbit_uncertainty": "8",
        "minimum_orbit_intersection": ".0178984",
        "jupiter_tisserand_invariant": "3.520",
        "epoch_osculation": "2457808.5",
        "eccentricity": ".7080194599081862",
        "semi_major_axis": "1.954974850959694",
        "inclination": "7.335140033976423",
        "ascending_node_longitude": "331.0121909998005",
        "orbital_period": "998.4129129083664",
        "perihelion_distance": ".5708146128491247",
        "perihelion_argument": "279.5239310661992",
        "aphelion_distance": "3.339135089070263",
        "perihelion_time": "2457858.980812932230",
        "mean_anomaly": "341.7980192156522",
        "mean_motion": ".3605722595787786",
        "equinox": "J2000",
        "orbit_class": {
            "orbit_class_type": "APO",
            "orbit_class_description": "Near-Earth asteroid orbits which cross the Earth’s orbit similar to that of 1862 Apollo",
            "orbit_class_range": "a (semi-major axis) > 1.0 AU; q (perihelion) < 1.017 AU"
        }
    },
    "is_sentry_object": false
}